start=new Date('2022-08-01T00:00:00.000Z').valueOf();
sats=[{"MEAN_MOTION_DDOT":"0.0000000000000","MEAN_MOTION":"15.06394773","BSTAR":"-0.00006158400000","LAUNCH_DATE":"2021-02-16","MEAN_ANOMALY":"303.1413","OBJECT_NAME":"STARLINK-1983","EPHEMERIS_TYPE":"0","RA_OF_ASC_NODE":"203.9248","MEAN_MOTION_DOT":"-0.00001199","FILE":"3526413","COUNTRY_CODE":"US","RCS_SIZE":"LARGE","TLE_LINE1":"1 47630U 21012L   22212.69628179 -.00001199  00000-0 -61584-4 0  9993","ELEMENT_SET_NO":"999","PERIAPSIS":"545.808","TIME_SYSTEM":"UTC","PERIOD":"95.592","APOAPSIS":"548.651","SITE":"AFETR","NORAD_CAT_ID":"47630","REV_AT_EPOCH":"8174","ECCENTRICITY":"0.00020530","SEMIMAJOR_AXIS":"6925.365","TLE_LINE2":"2 47630  53.0546 203.9248 0002053  56.9773 303.1413 15.06394773 81740","OBJECT_ID":"2021-012L","GP_ID":"209295821","CLASSIFICATION_TYPE":"U","EPOCH":"2022-07-31T16:42:38.746656","DECAY_DATE":null,"INCLINATION":"53.0546","CENTER_NAME":"EARTH","MEAN_ELEMENT_THEORY":"SGP4","REF_FRAME":"TEME","ARG_OF_PERICENTER":"56.9773","OBJECT_TYPE":"PAYLOAD"},{"MEAN_MOTION_DDOT":"0.0000000000000","MEAN_MOTION":"15.06393148","BSTAR":"0.00000795510000","LAUNCH_DATE":"2021-02-16","MEAN_ANOMALY":"292.0429","OBJECT_NAME":"STARLINK-1992","RA_OF_ASC_NODE":"128.5738","EPHEMERIS_TYPE":"0","MEAN_MOTION_DOT":"-0.00000163","FILE":"3526413","COUNTRY_CODE":"US","RCS_SIZE":"LARGE","TLE_LINE1":"1 47632U 21012N   22212.75568277 -.00000163  00000-0  79551-5 0  9997","ELEMENT_SET_NO":"999","PERIAPSIS":"546.084","TIME_SYSTEM":"UTC","PERIOD":"95.593","APOAPSIS":"548.385","SITE":"AFETR","NORAD_CAT_ID":"47632","REV_AT_EPOCH":"8280","ECCENTRICITY":"0.00016610","SEMIMAJOR_AXIS":"6925.370","TLE_LINE2":"2 47632  53.0537 128.5738 0001661  68.0737 292.0429 15.06393148 82802","OBJECT_ID":"2021-012N","EPOCH":"2022-07-31T18:08:10.991328","GP_ID":"209295074","CLASSIFICATION_TYPE":"U","DECAY_DATE":null,"INCLINATION":"53.0537","CENTER_NAME":"EARTH","MEAN_ELEMENT_THEORY":"SGP4","REF_FRAME":"TEME","ARG_OF_PERICENTER":"68.0737","OBJECT_TYPE":"PAYLOAD"},{"INCLINATION":"53.0540","CENTER_NAME":"EARTH","DECAY_DATE":null,"ARG_OF_PERICENTER":"61.6251","MEAN_ELEMENT_THEORY":"SGP4","REF_FRAME":"TEME","OBJECT_TYPE":"PAYLOAD","TLE_LINE2":"2 47633  53.0540 223.2097 0001641  61.6251 298.4903 15.06398433 81523","SEMIMAJOR_AXIS":"6925.353","ECCENTRICITY":"0.00016410","OBJECT_ID":"2021-012P","CLASSIFICATION_TYPE":"U","GP_ID":"209295324","EPOCH":"2022-07-31T20:10:56.151552","TLE_LINE1":"1 47633U 21012P   22212.84092768  .00000461  00000-0  49850-4 0  9993","FILE":"3526413","RCS_SIZE":"LARGE","COUNTRY_CODE":"US","PERIAPSIS":"546.082","ELEMENT_SET_NO":"999","SITE":"AFETR","APOAPSIS":"548.355","NORAD_CAT_ID":"47633","TIME_SYSTEM":"UTC","PERIOD":"95.592","REV_AT_EPOCH":"8152","MEAN_MOTION":"15.06398433","MEAN_MOTION_DDOT":"0.0000000000000","EPHEMERIS_TYPE":"0","RA_OF_ASC_NODE":"223.2097","BSTAR":"0.00004985000000","LAUNCH_DATE":"2021-02-16","OBJECT_NAME":"STARLINK-2009","MEAN_ANOMALY":"298.4903","MEAN_MOTION_DOT":"0.00000461"},{"TLE_LINE1":"1 47634U 21012Q   22212.74971505  .00000724  00000-0  67480-4 0  9999","FILE":"3526413","COUNTRY_CODE":"US","RCS_SIZE":"LARGE","PERIAPSIS":"546.257","ELEMENT_SET_NO":"999","APOAPSIS":"548.208","SITE":"AFETR","NORAD_CAT_ID":"47634","TIME_SYSTEM":"UTC","PERIOD":"95.593","REV_AT_EPOCH":"8148","MEAN_MOTION":"15.06393755","MEAN_MOTION_DDOT":"0.0000000000000","EPHEMERIS_TYPE":"0","RA_OF_ASC_NODE":"223.5931","BSTAR":"0.00006748000000","LAUNCH_DATE":"2021-02-16","OBJECT_NAME":"STARLINK-2010","MEAN_ANOMALY":"289.6455","MEAN_MOTION_DOT":"0.00000724","INCLINATION":"53.0538","CENTER_NAME":"EARTH","DECAY_DATE":null,"ARG_OF_PERICENTER":"70.4686","MEAN_ELEMENT_THEORY":"SGP4","REF_FRAME":"TEME","OBJECT_TYPE":"PAYLOAD","SEMIMAJOR_AXIS":"6925.368","TLE_LINE2":"2 47634  53.0538 223.5931 0001409  70.4686 289.6455 15.06393755 81484","ECCENTRICITY":"0.00014090","OBJECT_ID":"2021-012Q","GP_ID":"209295575","EPOCH":"2022-07-31T17:59:35.380320","CLASSIFICATION_TYPE":"U"},{"OBJECT_TYPE":"PAYLOAD","CENTER_NAME":"EARTH","INCLINATION":"53.0589","DECAY_DATE":null,"ARG_OF_PERICENTER":"75.4762","REF_FRAME":"TEME","MEAN_ELEMENT_THEORY":"SGP4","OBJECT_ID":"2021-012R","GP_ID":"209264261","EPOCH":"2022-07-31T12:13:54.547968","CLASSIFICATION_TYPE":"U","SEMIMAJOR_AXIS":"6925.351","TLE_LINE2":"2 47635  53.0589 129.6676 0001657  75.4762 284.6411 15.06399328 82781","ECCENTRICITY":"0.00016570","NORAD_CAT_ID":"47635","SITE":"AFETR","APOAPSIS":"548.363","PERIOD":"95.592","TIME_SYSTEM":"UTC","REV_AT_EPOCH":"8278","TLE_LINE1":"1 47635U 21012R   22212.50965912  .00002662  00000-0  19752-3 0  9990","COUNTRY_CODE":"US","RCS_SIZE":"LARGE","FILE":"3526169","PERIAPSIS":"546.068","ELEMENT_SET_NO":"999","EPHEMERIS_TYPE":"0","RA_OF_ASC_NODE":"129.6676","MEAN_ANOMALY":"284.6411","OBJECT_NAME":"STARLINK-2012","LAUNCH_DATE":"2021-02-16","BSTAR":"0.00019752000000","MEAN_MOTION_DOT":"0.00002662","MEAN_MOTION":"15.06399328","MEAN_MOTION_DDOT":"0.0000000000000"},{"ELEMENT_SET_NO":"999","PERIAPSIS":"546.181","RCS_SIZE":"LARGE","COUNTRY_CODE":"US","FILE":"3526413","TLE_LINE1":"1 47636U 21012S   22212.67046321 -.00000969  00000-0 -46124-4 0  9997","REV_AT_EPOCH":"8175","PERIOD":"95.592","TIME_SYSTEM":"UTC","NORAD_CAT_ID":"47636","APOAPSIS":"548.209","SITE":"AFETR","MEAN_MOTION_DDOT":"0.0000000000000","MEAN_MOTION":"15.06405959","MEAN_MOTION_DOT":"-0.00000969","MEAN_ANOMALY":"277.0474","OBJECT_NAME":"STARLINK-2013","LAUNCH_DATE":"2021-02-16","BSTAR":"-0.00004612400000","RA_OF_ASC_NODE":"203.9567","EPHEMERIS_TYPE":"0","REF_FRAME":"TEME","MEAN_ELEMENT_THEORY":"SGP4","ARG_OF_PERICENTER":"83.0681","DECAY_DATE":null,"CENTER_NAME":"EARTH","INCLINATION":"53.0547","OBJECT_TYPE":"PAYLOAD","ECCENTRICITY":"0.00014640","SEMIMAJOR_AXIS":"6925.330","TLE_LINE2":"2 47636  53.0547 203.9567 0001464  83.0681 277.0474 15.06405959 81751","GP_ID":"209294575","CLASSIFICATION_TYPE":"U","EPOCH":"2022-07-31T16:05:28.021344","OBJECT_ID":"2021-012S"},{"OBJECT_TYPE":"PAYLOAD","CENTER_NAME":"EARTH","INCLINATION":"53.0532","DECAY_DATE":null,"ARG_OF_PERICENTER":"65.7980","REF_FRAME":"TEME","MEAN_ELEMENT_THEORY":"SGP4","OBJECT_ID":"2021-012T","GP_ID":"209269824","EPOCH":"2022-07-31T18:34:04.585152","CLASSIFICATION_TYPE":"U","SEMIMAJOR_AXIS":"6925.339","TLE_LINE2":"2 47637  53.0532 203.4921 0001852  65.7980 294.3203 15.06403214 81265","ECCENTRICITY":"0.00018520","NORAD_CAT_ID":"47637","SITE":"AFETR","APOAPSIS":"548.486","PERIOD":"95.592","TIME_SYSTEM":"UTC","REV_AT_EPOCH":"8126","TLE_LINE1":"1 47637U 21012T   22212.77366418  .00000522  00000-0  53974-4 0  9995","COUNTRY_CODE":"US","RCS_SIZE":"LARGE","FILE":"3526217","PERIAPSIS":"545.921","ELEMENT_SET_NO":"999","RA_OF_ASC_NODE":"203.4921","EPHEMERIS_TYPE":"0","OBJECT_NAME":"STARLINK-2014","MEAN_ANOMALY":"294.3203","BSTAR":"0.00005397400000","LAUNCH_DATE":"2021-02-16","MEAN_MOTION_DOT":"0.00000522","MEAN_MOTION":"15.06403214","MEAN_MOTION_DDOT":"0.0000000000000"},{"MEAN_MOTION_DDOT":"0.0000000000000","MEAN_MOTION":"15.06398053","BSTAR":"-0.00000688790000","LAUNCH_DATE":"2021-02-16","MEAN_ANOMALY":"282.3440","OBJECT_NAME":"STARLINK-2015","RA_OF_ASC_NODE":"128.4868","EPHEMERIS_TYPE":"0","MEAN_MOTION_DOT":"-0.00000384","FILE":"3526413","COUNTRY_CODE":"US","RCS_SIZE":"LARGE","TLE_LINE1":"1 47638U 21012U   22212.77136377 -.00000384  00000-0 -68879-5 0  9994","ELEMENT_SET_NO":"999","PERIAPSIS":"546.069","TIME_SYSTEM":"UTC","PERIOD":"95.592","APOAPSIS":"548.371","SITE":"AFETR","NORAD_CAT_ID":"47638","REV_AT_EPOCH":"8280","ECCENTRICITY":"0.00016620","TLE_LINE2":"2 47638  53.0543 128.4868 0001662  77.7735 282.3440 15.06398053 82809","SEMIMAJOR_AXIS":"6925.355","OBJECT_ID":"2021-012U","GP_ID":"209296075","CLASSIFICATION_TYPE":"U","EPOCH":"2022-07-31T18:30:45.829728","DECAY_DATE":null,"INCLINATION":"53.0543","CENTER_NAME":"EARTH","MEAN_ELEMENT_THEORY":"SGP4","REF_FRAME":"TEME","ARG_OF_PERICENTER":"77.7735","OBJECT_TYPE":"PAYLOAD"},{"ELEMENT_SET_NO":"999","PERIAPSIS":"546.082","RCS_SIZE":"LARGE","COUNTRY_CODE":"US","FILE":"3526413","TLE_LINE1":"1 47639U 21012V   22212.75155176  .00000922  00000-0  80795-4 0  9997","REV_AT_EPOCH":"8175","PERIOD":"95.592","TIME_SYSTEM":"UTC","NORAD_CAT_ID":"47639","SITE":"AFETR","APOAPSIS":"548.359","MEAN_MOTION_DDOT":"0.0000000000000","MEAN_MOTION":"15.06397785","MEAN_MOTION_DOT":"0.00000922","OBJECT_NAME":"STARLINK-2016","MEAN_ANOMALY":"289.2325","BSTAR":"0.00008079500000","LAUNCH_DATE":"2021-02-16","EPHEMERIS_TYPE":"0","RA_OF_ASC_NODE":"203.5926","REF_FRAME":"TEME","MEAN_ELEMENT_THEORY":"SGP4","ARG_OF_PERICENTER":"70.8841","DECAY_DATE":null,"CENTER_NAME":"EARTH","INCLINATION":"53.0539","OBJECT_TYPE":"PAYLOAD","ECCENTRICITY":"0.00016440","SEMIMAJOR_AXIS":"6925.355","TLE_LINE2":"2 47639  53.0539 203.5926 0001644  70.8841 289.2325 15.06397785 81759","CLASSIFICATION_TYPE":"U","GP_ID":"209295822","EPOCH":"2022-07-31T18:02:14.072064","OBJECT_ID":"2021-012V"},{"REV_AT_EPOCH":"8150","SITE":"AFETR","APOAPSIS":"548.319","NORAD_CAT_ID":"47640","TIME_SYSTEM":"UTC","PERIOD":"95.593","PERIAPSIS":"546.158","ELEMENT_SET_NO":"999","TLE_LINE1":"1 47640U 21012W   22212.81237898 -.00000982  00000-0 -47075-4 0  9990","FILE":"3526413","COUNTRY_CODE":"US","RCS_SIZE":"LARGE","MEAN_MOTION_DOT":"-0.00000982","RA_OF_ASC_NODE":"223.3073","EPHEMERIS_TYPE":"0","LAUNCH_DATE":"2021-02-16","BSTAR":"-0.00004707500000","MEAN_ANOMALY":"295.3182","OBJECT_NAME":"STARLINK-2018","MEAN_MOTION":"15.06391799","MEAN_MOTION_DDOT":"0.0000000000000","OBJECT_TYPE":"PAYLOAD","ARG_OF_PERICENTER":"64.7969","MEAN_ELEMENT_THEORY":"SGP4","REF_FRAME":"TEME","INCLINATION":"53.0539","CENTER_NAME":"EARTH","DECAY_DATE":null,"GP_ID":"209295075","CLASSIFICATION_TYPE":"U","EPOCH":"2022-07-31T19:29:49.543872","OBJECT_ID":"2021-012W","TLE_LINE2":"2 47640  53.0539 223.3073 0001560  64.7969 295.3182 15.06391799 81505","SEMIMAJOR_AXIS":"6925.374","ECCENTRICITY":"0.00015600"}];
